NORAD_CAT_ID,OBJECT_NAME,OBJECT_TYPE,EPOCH,MEAN_MOTION,ECCENTRICITY,INCLINATION,RA_OF_ASC_NODE,ARG_OF_PERICENTER,MEAN_ANOMALY,BSTAR,MEAN_MOTION_DOT,MEAN_MOTION_DDOT,TLE_LINE0,TLE_LINE1,TLE_LINE2,SEMIMAJOR_AXIS,PERIOD,APOGEE,PERIGEE,DECAYED
52673.0,STARLINK-3976,PAYLOAD,2024-03-18 05:10:11,15.08819006,0.0001472,53.2171,152.9426,105.8257,254.2897,0.00024796,3.658e-05,0.0,0 STARLINK-3976,1 52673U 22053T   24078.21541278  .00003658  00000-0  24796-3 0  9999,2 52673  53.2171 152.9426 0001472 105.8257 254.2897 15.08819006101697,6917.945,95.439,540.828,538.791,0.0
52673.0,STARLINK-3976,PAYLOAD,2024-03-18 11:31:43,15.0885776,0.0001091,53.2167,151.751,107.3955,252.7157,-0.00028967,-4.897e-05,0.0,0 STARLINK-3976,1 52673U 22053T   24078.48036491 -.00004897  00000-0 -28967-3 0  9996,2 52673  53.2167 151.7510 0001091 107.3955 252.7157 15.08857760101738,6917.826,95.436,540.446,538.936,0.0
52673.0,STARLINK-3976,PAYLOAD,2024-03-19 11:22:30,15.08842781,0.0001476,53.217,147.2907,93.194,266.9221,9.8516e-05,1.28e-05,0.0,0 STARLINK-3976,1 52673U 22053T   24079.47396537  .00001280  00000-0  98516-4 0  9995,2 52673  53.2170 147.2907 0001476  93.1940 266.9221 15.08842781101887,6917.872,95.437,540.758,538.716,0.0
52673.0,STARLINK-3976,PAYLOAD,2024-03-20 09:37:55,15.08832346,0.0001798,53.2164,143.1278,131.3072,228.8075,4.6688e-05,4.55e-06,0.0,0 STARLINK-3976,1 52673U 22053T   24080.40133422  .00000455  00000-0  46688-4 0  9998,2 52673  53.2164 143.1278 0001798 131.3072 228.8075 15.08832346102021,6917.904,95.438,541.013,538.525,0.0
52673.0,STARLINK-3976,PAYLOAD,2024-03-20 11:13:19,15.08823532,0.0001723,53.2173,142.8322,120.683,239.4332,-1.5953e-05,-5.42e-06,0.0,0 STARLINK-3976,1 52673U 22053T   24080.46758292 -.00000542  00000-0 -15953-4 0  9992,2 52673  53.2173 142.8322 0001723 120.6830 239.4332 15.08823532102467,6917.931,95.439,540.988,538.604,0.0
52673.0,STARLINK-3976,PAYLOAD,2024-03-21 11:04:05,15.08837782,0.0001551,53.2177,138.3755,112.1764,247.9393,4.4783e-05,4.25e-06,0.0,0 STARLINK-3976,1 52673U 22053T   24081.46117911  .00000425  00000-0  44783-4 0  9991,2 52673  53.2177 138.3755 0001551 112.1764 247.9393 15.08837782102184,6917.887,95.438,540.825,538.679,0.0
52673.0,STARLINK-3976,PAYLOAD,2024-03-21 14:14:51,15.08844115,0.0001515,53.216,137.777,114.5301,245.585,0.0001014,1.326e-05,0.0,0 STARLINK-3976,1 52673U 22053T   24081.59365397  .00001326  00000-0  10140-3 0  9998,2 52673  53.2160 137.7770 0001515 114.5301 245.5850 15.08844115102639,6917.868,95.437,540.781,538.685,0.0
52673.0,STARLINK-3976,PAYLOAD,2024-03-22 12:30:14,15.0886893,0.0001474,53.2155,133.6153,101.1709,258.9449,0.00066567,0.0001033,0.0,0 STARLINK-3976,1 52673U 22053T   24082.52100326  .00010330  00000-0  66567-3 0  9990,2 52673  53.2155 133.6153 0001474 101.1709 258.9449 15.08868930102342,6917.792,95.436,540.677,538.637,0.0
52673.0,STARLINK-3976,PAYLOAD,2024-03-23 10:45:39,15.08835147,0.0001368,53.2161,129.4526,124.1192,235.993,-0.00022587,-3.88e-05,0.0,0 STARLINK-3976,1 52673U 22053T   24083.44836945 -.00003880  00000-0 -22587-3 0  9993,2 52673  53.2161 129.4526 0001368 124.1192 235.9930 15.08835147102488,6917.895,95.438,540.707,538.814,0.0
52673.0,STARLINK-3976,PAYLOAD,2024-03-23 20:17:58,15.08836442,0.0001246,53.2164,127.6678,108.6706,251.4421,-6.7638e-05,-1.364e-05,0.0,0 STARLINK-3976,1 52673U 22053T   24083.84581264 -.00001364  00000-0 -67638-4 0  9990,2 52673  53.2164 127.6678 0001246 108.6706 251.4421 15.08836442102973,6917.891,95.438,540.618,538.894,0.0
52673.0,STARLINK-3976,PAYLOAD,2024-03-24 09:01:02,15.08848427,0.0001338,53.2147,125.2885,105.5457,254.5683,0.00013924,1.929e-05,0.0,0 STARLINK-3976,1 52673U 22053T   24084.37572668  .00001929  00000-0  13924-3 0  9990,2 52673  53.2147 125.2885 0001338 105.5457 254.5683 15.08848427102621,6917.855,95.437,540.645,538.794,0.0
52673.0,STARLINK-3976,PAYLOAD,2024-03-24 20:08:44,15.08874968,0.0001449,53.2153,123.2038,107.9751,252.1399,0.0012513,0.00019702,0.0,0 STARLINK-3976,1 52673U 22053T   24084.83940223  .00019702  00000-0  12513-2 0  9997,2 52673  53.2153 123.2038 0001449 107.9751 252.1399 15.08874968102696,6917.774,95.435,540.641,538.636,0.0
52673.0,STARLINK-3976,PAYLOAD,2024-03-25 05:41:03,15.08833902,0.0001307,53.2155,121.4216,95.4909,264.6232,-0.00020746,-3.588e-05,0.0,0 STARLINK-3976,1 52673U 22053T   24085.23685037 -.00003588  00000-0 -20746-3 0  9996,2 52673  53.2155 121.4216 0001307  95.4909 264.6232 15.08833902102759,6917.899,95.438,540.668,538.86,0.0
52673.0,STARLINK-3976,PAYLOAD,2024-03-25 12:02:36,15.08846135,0.0001544,53.2154,120.2309,98.9488,261.1679,0.00023935,3.524e-05,0.0,0 STARLINK-3976,1 52673U 22053T   24085.50180950  .00003524  00000-0  23935-3 0  9991,2 52673  53.2154 120.2309 0001544  98.9488 261.1679 15.08846135102794,6917.862,95.437,540.795,538.659,0.0
52673.0,STARLINK-3976,PAYLOAD,2024-03-26 08:42:38,15.08822024,0.0001371,53.2144,116.3665,95.4805,264.6343,2.6886e-05,1.4e-06,0.0,0 STARLINK-3976,1 52673U 22053T   24086.36294559  .00000140  00000-0  26886-4 0  9997,2 52673  53.2144 116.3665 0001371  95.4805 264.6343 15.08822024102929,6917.935,95.439,540.749,538.852,0.0
52673.0,STARLINK-3976,PAYLOAD,2024-03-27 11:44:12,15.08838273,0.0001373,53.2153,111.3114,96.3107,263.8042,0.00062706,9.705e-05,0.0,0 STARLINK-3976,1 52673U 22053T   24087.48903548  .00009705  00000-0  62706-3 0  9992,2 52673  53.2153 111.3114 0001373  96.3107 263.8042 15.08838273103099,6917.886,95.438,540.7,538.801,0.0
52673.0,STARLINK-3976,PAYLOAD,2024-03-27 18:05:45,15.08848494,0.0001471,53.2157,110.1229,99.8097,260.3061,0.00071356,0.00011089,0.0,0 STARLINK-3976,1 52673U 22053T   24087.75399307  .00011089  00000-0  71356-3 0  9993,2 52673  53.2157 110.1229 0001471  99.8097 260.3061 15.08848494103563,6917.854,95.437,540.737,538.702,0.0
52673.0,STARLINK-3976,PAYLOAD,2024-03-28 11:34:58,15.08869129,0.0001527,53.216,106.852,101.0514,259.065,0.00075277,0.00011722,0.0,0 STARLINK-3976,1 52673U 22053T   24088.48262348  .00011722  00000-0  75277-3 0  9998,2 52673  53.2160 106.8520 0001527 101.0514 259.0650 15.08869129103247,6917.791,95.436,540.713,538.6,0.0
52673.0,STARLINK-3976,PAYLOAD,2024-03-28 17:56:30,15.08874563,0.0001527,53.2159,105.6624,101.4563,258.6601,0.0007534,0.00011734,0.0,0 STARLINK-3976,1 52673U 22053T   24088.74757783  .00011734  00000-0  75340-3 0  9993,2 52673  53.2159 105.6624 0001527 101.4563 258.6601 15.08874563103716,6917.775,95.435,540.696,538.583,0.0
52673.0,STARLINK-3976,PAYLOAD,2024-03-29 05:04:12,15.08842827,0.0001549,53.2157,103.5811,96.9233,263.1935,-0.00026638,-4.525e-05,0.0,0 STARLINK-3976,1 52673U 22053T   24089.21126122 -.00004525  00000-0 -26638-3 0  9991,2 52673  53.2157 103.5811 0001549  96.9233 263.1935 15.08842827103354,6917.872,95.437,540.808,538.665,0.0
52673.0,STARLINK-3976,PAYLOAD,2024-03-29 09:50:22,15.08842833,0.0001493,53.2157,102.6886,91.8647,268.2516,-3.0768e-05,-7.78e-06,0.0,0 STARLINK-3976,1 52673U 22053T   24089.40998165 -.00000778  00000-0 -30768-4 0  9992,2 52673  53.2157 102.6886 0001493  91.8647 268.2516 15.08842833103816,6917.872,95.437,540.77,538.704,0.0
52673.0,STARLINK-3976,PAYLOAD,2024-03-30 08:05:46,15.08842506,0.0001536,53.2159,98.5254,91.0189,269.0979,0.00014689,2.051e-05,0.0,0 STARLINK-3976,1 52673U 22053T   24090.33734550  .00002051  00000-0  14689-3 0  9999,2 52673  53.2159  98.5254 0001536  91.0189 269.0979 15.08842506103528,6917.873,95.437,540.8,538.675,0.0
52673.0,STARLINK-3976,PAYLOAD,2024-03-30 17:38:05,15.08855721,0.0001456,53.2156,96.7405,97.4057,262.71,0.0005127,7.885e-05,0.0,0 STARLINK-3976,1 52673U 22053T   24090.73478062  .00007885  00000-0  51270-3 0  9993,2 52673  53.2156  96.7405 0001456  97.4057 262.7100 15.08855721103583,6917.832,95.437,540.705,538.69,0.0
52673.0,STARLINK-3976,PAYLOAD,2024-03-31 04:45:46,15.08881259,0.0001468,53.2155,94.6596,94.8695,265.2465,0.0013194,0.00020796,0.0,0 STARLINK-3976,1 52673U 22053T   24091.19845212  .00020796  00000-0  13194-2 0  9997,2 52673  53.2155  94.6596 0001468  94.8695 265.2465 15.08881259103657,6917.754,95.435,540.635,538.604,0.0
52673.0,STARLINK-3976,PAYLOAD,2024-03-31 09:31:55,15.08891118,0.0001378,53.2152,93.7677,96.4795,263.6354,0.0014354,0.00022662,0.0,0 STARLINK-3976,1 52673U 22053T   24091.39716580  .00022662  00000-0  14354-2 0  9997,2 52673  53.2152  93.7677 0001378  96.4795 263.6354 15.08891118104119,6917.724,95.434,540.542,538.636,0.0
52673.0,STARLINK-3976,PAYLOAD,2024-04-01 10:58:06,15.08807289,0.0001207,53.2157,89.0094,77.2265,282.8862,-0.00061218,-0.00010009,0.0,0 STARLINK-3976,1 52673U 22053T   24092.45701508 -.00010009  00000-0 -61218-3 0  9995,2 52673  53.2157  89.0094 0001207  77.2265 282.8862 15.08807289103847,6917.98,95.44,540.68,539.01,0.0
52673.0,STARLINK-3976,PAYLOAD,2024-04-02 09:13:32,15.08816303,0.000139,53.2163,84.8466,74.5285,285.5861,0.0010326,0.00016173,0.0,0 STARLINK-3976,1 52673U 22053T   24093.38440337  .00016173  00000-0  10326-2 0  9997,2 52673  53.2163  84.8466 0001390  74.5285 285.5861 15.08816303103986,6917.953,95.439,540.779,538.856,0.0
52673.0,STARLINK-3976,PAYLOAD,2024-04-03 09:04:19,15.08855294,0.000139,53.2163,80.3866,72.8969,287.2175,0.0011036,0.00017327,0.0,0 STARLINK-3976,1 52673U 22053T   24094.37800367  .00017327  00000-0  11036-2 0  9991,2 52673  53.2163  80.3866 0001390  72.8969 287.2175 15.08855294104565,6917.834,95.437,540.66,538.737,0.0
52673.0,STARLINK-3976,PAYLOAD,2024-04-04 05:44:19,15.08862035,0.0001435,53.2159,76.5195,75.2656,284.8496,0.00050853,7.819e-05,0.0,0 STARLINK-3976,1 52673U 22053T   24095.23911359  .00007819  00000-0  50853-3 0  9997,2 52673  53.2159  76.5195 0001435  75.2656 284.8496 15.08862035104269,6917.813,95.436,540.671,538.685,0.0
52673.0,STARLINK-3976,PAYLOAD,2024-04-04 08:55:05,15.08862109,0.0001442,53.2166,75.9255,75.1066,285.0085,0.00055134,8.503e-05,0.0,0 STARLINK-3976,1 52673U 22053T   24095.37159208  .00008503  00000-0  55134-3 0  9997,2 52673  53.2166  75.9255 0001442  75.1066 285.0085 15.08862109104718,6917.813,95.436,540.675,538.68,0.0
